[
    {
        "CCSDS_OMM_VERS": "3.0",
        "COMMENT": "GENERATED VIA SPACE-TRACK.ORG API",
        "CREATION_DATE": "2025-04-14T06:46:34",
        "ORIGINATOR": "18 SPCS",
        "OBJECT_NAME": "COSMOS 2464 (GLONASS)",
        "OBJECT_ID": "2010-041C",
        "CENTER_NAME": "EARTH",
        "REF_FRAME": "TEME",
        "TIME_SYSTEM": "UTC",
        "MEAN_ELEMENT_THEORY": "SGP4",
        "EPOCH": "2025-04-14T01:22:49.499904",
        "MEAN_MOTION": "2.13099487",
        "ECCENTRICITY": "0.00330900",
        "INCLINATION": "63.9145",
        "RA_OF_ASC_NODE": "204.9598",
        "ARG_OF_PERICENTER": "11.0608",
        "MEAN_ANOMALY": "124.3893",
        "EPHEMERIS_TYPE": "0",
        "CLASSIFICATION_TYPE": "U",
        "NORAD_CAT_ID": "37139",
        "ELEMENT_SET_NO": "999",
        "REV_AT_EPOCH": "11373",
        "BSTAR": "0.00000000000000",
        "MEAN_MOTION_DOT": "0.00000019",
        "MEAN_MOTION_DDOT": "0.0000000000000",
        "SEMIMAJOR_AXIS": "25508.225",
        "PERIOD": "675.741",
        "APOAPSIS": "19214.497",
        "PERIAPSIS": "19045.683",
        "OBJECT_TYPE": "PAYLOAD",
        "RCS_SIZE": "LARGE",
        "COUNTRY_CODE": "CIS",
        "LAUNCH_DATE": "2010-09-02",
        "SITE": "TTMTR",
        "DECAY_DATE": null,
        "FILE": "4701425",
        "GP_ID": "285556322",
        "TLE_LINE0": "0 COSMOS 2464 (GLONASS)",
        "TLE_LINE1": "1 37139U 10041C   25104.05751736  .00000019  00000-0  00000+0 0  9994",
        "TLE_LINE2": "2 37139  63.9145 204.9598 0033090  11.0608 124.3893  2.13099487113739"
    }
]